[{"OBJECT_NAME":"STARLINK-3894","OBJECT_ID":"2022-049BA","EPOCH":"2026-03-09T05:12:25.833888","MEAN_MOTION":15.08841986,"ECCENTRICITY":0.00014673,"INCLINATION":53.2174,"RA_OF_ASC_NODE":51.2384,"ARG_OF_PERICENTER":99.3621,"MEAN_ANOMALY":260.7537,"EPHEMERIS_TYPE":0,"CLASSIFICATION_TYPE":"U","NORAD_CAT_ID":52499,"ELEMENT_SET_NO":999,"REV_AT_EPOCH":21232,"BSTAR":2.6451027e-5,"MEAN_MOTION_DOT":1.33e-6,"MEAN_MOTION_DDOT":0},{"OBJECT_NAME":"OBJECT A","OBJECT_ID":"2024-110A","EPOCH":"2026-03-09T23:09:02.134656","MEAN_MOTION":15.1192128,"ECCENTRICITY":0.0007919,"INCLINATION":97.5675,"RA_OF_ASC_NODE":161.4531,"ARG_OF_PERICENTER":228.7681,"MEAN_ANOMALY":131.2868,"EPHEMERIS_TYPE":0,"CLASSIFICATION_TYPE":"U","NORAD_CAT_ID":60012,"ELEMENT_SET_NO":999,"REV_AT_EPOCH":9691,"BSTAR":0.00051932581,"MEAN_MOTION_DOT":8.842e-5,"MEAN_MOTION_DDOT":0}]
